OBJECT_NAME,OBJECT_ID,EPOCH,MEAN_MOTION,ECCENTRICITY,INCLINATION,RA_OF_ASC_NODE,ARG_OF_PERICENTER,MEAN_ANOMALY,EPHEMERIS_TYPE,CLASSIFICATION_TYPE,NORAD_CAT_ID,ELEMENT_SET_NO,REV_AT_EPOCH,BSTAR,MEAN_MOTION_DOT,MEAN_MOTION_DDOT
HAWK-5A,2022-057AB,2026-07-17T22:17:37.332384,15.52384529,.00030816,97.6632,359.7918,325.4381,34.6670,0,U,52757,999,23111,.18665983E-3,.11283E-3,0
HAWK-6B,2023-011A,2026-07-17T22:27:23.310144,15.23169163,.00044723,40.4976,172.6890,254.5549,105.4766,0,U,55324,999,19253,.11460971E-3,.257E-4,0
HAWK-6C,2023-011C,2026-07-17T22:26:28.664736,15.23168817,.00049575,40.4966,169.5282,248.7068,111.3212,0,U,55326,999,19254,.10334933E-3,.2298E-4,0
HAWK-6A,2023-011D,2026-07-17T08:16:47.864352,15.23165655,.0004531,40.4975,174.5982,242.4920,117.5429,0,U,55327,999,19245,.10543E-3,.2348E-4,0
HAWK-7A,2023-054P,2026-07-17T02:42:55.220832,15.27644350,.00012326,97.2658,84.6895,321.9127,38.2026,0,U,56191,999,18159,.11158353E-3,.2943E-4,0
HAWK-7B,2023-054R,2026-07-17T16:51:44.204544,15.27645853,.00010507,97.2682,83.5386,10.8602,349.2660,0,U,56193,999,18168,.10685579E-3,.2815E-4,0
HAWK-7C,2023-054Y,2026-07-17T15:17:13.792416,15.27648156,.0000687,97.2658,84.2340,342.1037,18.0178,0,U,56200,999,18167,.10699E-3,.2819E-4,0
